COSMOS 2425 (716)       
1 29670U 06062A   19039.24522661  .00000019  00000-0  10000-3 0  9992
2 29670  65.1646 284.5529 0023182 347.4753 102.1801  2.13105446 94347
COSMOS 2426 (717)       
1 29671U 06062B   19038.55591606  .00000019  00000-0  10000-3 0  9991
2 29671  65.1827 284.6809 0016394 162.6580 332.3014  2.13103083 94330
COSMOS 2433 (720)       
1 32275U 07052A   19039.32839752 -.00000017  00000-0  10000-3 0  9997
2 32275  65.7976  45.4477 0005425 267.3606  76.5212  2.13104425 87851
COSMOS 2432 (719)       
1 32276U 07052B   19038.56655031 -.00000020  00000-0  10000-3 0  9993
2 32276  65.8092  45.5536 0012556 321.7821 108.9989  2.13103715 87847
COSMOS 2434 (721)       
1 32393U 07065A   19038.46986444  .00000021  00000-0  00000-0 0  9997
2 32393  64.7803 283.4440 0004018  83.3472 209.4431  2.13102924 86545
COSMOS 2436 (723)       
1 32395U 07065C   19038.87553032  .00000020  00000-0  10000-3 0  9990
2 32395  64.7891 283.4815 0017112   1.4864 294.1659  2.13104271 86488
COSMOS 2456 (730)       
1 36111U 09070A   19038.65610301  .00000029  00000-0  00000+0 0  9991
2 36111  64.1946 163.0536 0003226 336.3667 272.1476  2.13102783 71212
COSMOS 2457 (733)       
1 36112U 09070B   19039.16116277  .00000033  00000-0  00000+0 0  9997
2 36112  64.1768 162.9412 0006320 154.1437 247.5320  2.13101450 71231
COSMOS 2458 (734)       
1 36113U 09070C   19038.59938449  .00000028  00000-0  10000-3 0  9996
2 36113  64.1826 162.9742 0002860  48.4182 322.6478  2.13092372 71220
COSMOS 2459 (731)       
1 36400U 10007A   19038.66183899 -.00000021  00000-0  10000-3 0  9990
2 36400  65.7043  44.5022 0027304 345.3846  64.1143  2.13102147 69573
COSMOS 2461 (735)       
1 36401U 10007B   19039.41796188 -.00000018  00000-0  10000-3 0  9992
2 36401  65.6958  44.4507 0004674  44.1948 135.9094  2.13102047 69589
COSMOS 2460 (732)       
1 36402U 10007C   19038.94056777 -.00000020  00000-0  10000-3 0  9996
2 36402  65.6877  44.4315 0002730 282.2936 291.7595  2.13101498 69575
COSMOS 2464 (736)       
1 37139U 10041C   19038.83021184  .00000020  00000-0  00000-0 0  9999
2 37139  64.3819 283.1173 0026416  13.0477  63.4204  2.13100834 65644
COSMOS 2471 (701K)      
1 37372U 11009A   19039.16694400 -.00000019  00000-0  00000+0 0  9995
2 37372  65.6837  44.3680 0010093 239.9445 296.8586  2.13107538 61857
COSMOS 2474 (742)       
1 37829U 11055A   19038.54186168  .00000029  00000-0  00000-0 0  9992
2 37829  64.5163 163.8735 0007257 239.7111 138.1860  2.13101797 57217
COSMOS 2476 (744)       
1 37867U 11064A   19039.15013369  .00000034  00000-0  00000+0 0  9999
2 37867  64.4980 163.9091 0017397 237.3796 293.2604  2.13101853 56570
COSMOS 2477 (745)       
1 37868U 11064B   19038.63029910  .00000029  00000-0  00000-0 0  9996
2 37868  64.5064 163.9779 0015092 238.0746  72.5446  2.13101658 56510
COSMOS 2475 (743)       
1 37869U 11064C   19038.74039633  .00000031  00000-0  00000+0 0  9994
2 37869  64.5137 163.9710 0018941 264.9220  87.1351  2.13101855 56525
COSMOS 2485 (747)       
1 39155U 13019A   19038.86576928  .00000032  00000-0  00000+0 0  9993
2 39155  64.6663 164.0799 0017882 232.0205 125.2662  2.13101803 45037
COSMOS 2492 (754)       
1 39620U 14012A   19038.60603530 -.00000021  00000-0  10000-3 0  9990
2 39620  65.5765  44.2955 0016008 320.5077 232.5172  2.13103315 37982
COSMOS 2500 (755)       
1 40001U 14032A   19039.11249549 -.00000020  00000-0  00000+0 0  9994
2 40001  65.5190  44.2299 0007447 228.0212 215.2434  2.13102639 36212
COSMOS 2501 (702K)      
1 40315U 14075A   19038.53142882  .00000018  00000-0  00000+0 0  9992
2 40315  64.1044 284.2561 0014869 208.3471 308.3444  2.13098452 32606
COSMOS 2514 (751)       
1 41330U 16008A   19039.25287073 -.00000020  00000-0  00000+0 0  9994
2 41330  65.3202  44.2199 0011068 229.1133 143.2638  2.13103115 23387
COSMOS 2516 (753)       
1 41554U 16032A   19039.19494582  .00000018  00000-0  00000+0 0  9993
2 41554  64.3276 284.1644 0010733 221.2843 357.3584  2.13101776 20986
COSMOS 2522 (752)       
1 42939U 17055A   19038.39182478  .00000019  00000-0  00000+0 0  9997
2 42939  64.5572 284.2266 0006481 257.7405 291.2477  2.13101983 10727
